0 FENGYUN 1C DEB
1 32304U 99025CWV 13284.38662987  .00001279  00000-0  50395-3 0  1675
2 32304 099.4378 133.1147 0069292 136.1394 224.5168 14.29798820324691
0 FENGYUN 1C DEB
1 32304U 99025CWV 13286.76591943  .00001297  00000-0  51122-3 0  1682
2 32304 099.4320 135.6804 0068543 128.7056 232.0166 14.29805611325033
0 FENGYUN 1C DEB
1 32304U 99025CWV 13288.79530012  .00001397  00000-0  54870-3 0  1692
2 32304 099.4307 137.8792 0068575 122.9267 237.8605 14.29813048325329
0 FENGYUN 1C DEB
1 32304U 99025CWV 13291.80435891  .00001406  00000-0  55178-3 0  1702
2 32304 099.4318 141.1399 0069127 114.5010 246.3381 14.29821937325758
0 FENGYUN 1C DEB
1 32304U 99025CWV 13292.36418220  .00001466  00000-0  57410-3 0  1719
2 32304 099.4350 141.7517 0070449 113.5241 247.3634 14.29824945325839
0 FENGYUN 1C DEB
1 32304U 99025CWV 13295.37320714  .00001507  00000-0  58950-3 0  1720
2 32304 099.4356 145.0110 0070388 104.8219 256.0882 14.29835230326260
